STARLINK-31122          
1 58774U 24011K   24031.58335648 -.01713259  00000+0 -21322-1 0  9991
2 58774  53.1604 251.7840 0001067  93.2412 205.9531 15.62213092  3935
STARLINK-31123          
1 58775U 24011L   24031.58335648 -.01713895  00000+0 -21333-1 0  9990
2 58775  53.1603 251.7821 0000836  81.2006 218.8617 15.62212513  3826
STARLINK-31117          
1 58776U 24011M   24031.58335648 -.01713727  00000+0 -21332-1 0  9994
2 58776  53.1604 251.7801 0000853  87.2901 213.6403 15.62210774  3828
STARLINK-31132          
1 58777U 24011N   24031.58335648 -.01713665  00000+0 -21331-1 0  9995
2 58777  53.1602 251.7785 0001060  91.4432 210.3539 15.62209128  3932
STARLINK-31120          
1 58778U 24011P   24031.58335648 -.01714087  00000+0 -21340-1 0  9995
2 58778  53.1603 251.7746 0000887  79.9074 223.6256 15.62206902  3828
STARLINK-31142          
1 58779U 24011Q   24031.58335648 -.01714515  00000+0 -21345-1 0  9997
2 58779  53.1603 251.7761 0000813  80.4057 222.2594 15.62208650  3937
STARLINK-31103          
1 58780U 24011R   24031.58335648 -.01713426  00000+0 -21332-1 0  9995
2 58780  53.1603 251.7728 0000980  85.2765 219.1248 15.62204690  3825
STARLINK-31099          
1 58781U 24011S   24031.58335648 -.01714957  00000+0 -21355-1 0  9991
2 58781  53.1605 251.7693 0000925  79.1355 227.0003 15.62203083  3827
STARLINK-31060          
1 58782U 24011T   24031.58335648 -.01674778  00000+0 -13470-1 0  9997
2 58782  53.1605 251.6389 0001713 120.7163 250.6595 15.73214433  3837
STARLINK-31047          
1 58783U 24011U   24031.50002315 -.01680720  00000+0 -18526-1 0  9993
2 58783  53.1598 251.9485 0000896  77.2129 231.8371 15.65708034  3815
STARLINK-31039          
1 58784U 24011V   24031.50002315 -.01675724  00000+0 -20986-1 0  9995
2 58784  53.1600 252.1718 0001090  80.4171 118.4843 15.62501867  3818
STARLINK-31034          
1 58785U 24011W   24031.50002315 -.01557227  00000+0 -12154-1 0  9991
2 58785  53.1602 251.6118 0001077  80.7605  32.7745 15.73703792  3811
STARLINK-31024          
1 58786U 24011X   24031.50002315 -.01675196  00000+0 -20982-1 0  9996
2 58786  53.1598 252.1677 0000980  88.3742 112.2644 15.62498730  3813
STARLINK-31189          
1 58787U 24012A   24031.58335648 -.01744580  00000+0 -14241-1 0  9999
2 58787  43.0008 177.8460 0001406 282.9734 153.5616 15.72771943  3681
