[
  {
    "OBJECT_NAME": "STARLINK-31122",
    "OBJECT_ID": "2024-011K",
    "EPOCH": "2024-01-31T14:00:01.999872",
    "MEAN_MOTION": 15.62213092,
    "ECCENTRICITY": 0.0001067,
    "INCLINATION": 53.1604,
    "RA_OF_ASC_NODE": 251.784,
    "ARG_OF_PERICENTER": 93.2412,
    "MEAN_ANOMALY": 205.9531,
    "EPHEMERIS_TYPE": 0,
    "CLASSIFICATION_TYPE": "U",
    "NORAD_CAT_ID": 58774,
    "ELEMENT_SET_NO": 999,
    "REV_AT_EPOCH": 393,
    "BSTAR": -0.021322,
    "MEAN_MOTION_DOT": -0.01713259,
    "MEAN_MOTION_DDOT": 0
  },
  {
    "OBJECT_NAME": "STARLINK-31123",
    "OBJECT_ID": "2024-011L",
    "EPOCH": "2024-01-31T14:00:01.999872",
    "MEAN_MOTION": 15.62212513,
    "ECCENTRICITY": 8.36e-05,
    "INCLINATION": 53.1603,
    "RA_OF_ASC_NODE": 251.7821,
    "ARG_OF_PERICENTER": 81.2006,
    "MEAN_ANOMALY": 218.8617,
    "EPHEMERIS_TYPE": 0,
    "CLASSIFICATION_TYPE": "U",
    "NORAD_CAT_ID": 58775,
    "ELEMENT_SET_NO": 999,
    "REV_AT_EPOCH": 382,
    "BSTAR": -0.021333,
    "MEAN_MOTION_DOT": -0.01713895,
    "MEAN_MOTION_DDOT": 0
  },
  {
    "OBJECT_NAME": "STARLINK-31117",
    "OBJECT_ID": "2024-011M",
    "EPOCH": "2024-01-31T14:00:01.999872",
    "MEAN_MOTION": 15.62210774,
    "ECCENTRICITY": 8.53e-05,
    "INCLINATION": 53.1604,
    "RA_OF_ASC_NODE": 251.7801,
    "ARG_OF_PERICENTER": 87.2901,
    "MEAN_ANOMALY": 213.6403,
    "EPHEMERIS_TYPE": 0,
    "CLASSIFICATION_TYPE": "U",
    "NORAD_CAT_ID": 58776,
    "ELEMENT_SET_NO": 999,
    "REV_AT_EPOCH": 382,
    "BSTAR": -0.021332,
    "MEAN_MOTION_DOT": -0.01713727,
    "MEAN_MOTION_DDOT": 0
  },
  {
    "OBJECT_NAME": "STARLINK-31132",
    "OBJECT_ID": "2024-011N",
    "EPOCH": "2024-01-31T14:00:01.999872",
    "MEAN_MOTION": 15.62209128,
    "ECCENTRICITY": 0.000106,
    "INCLINATION": 53.1602,
    "RA_OF_ASC_NODE": 251.7785,
    "ARG_OF_PERICENTER": 91.4432,
    "MEAN_ANOMALY": 210.3539,
    "EPHEMERIS_TYPE": 0,
    "CLASSIFICATION_TYPE": "U",
    "NORAD_CAT_ID": 58777,
    "ELEMENT_SET_NO": 999,
    "REV_AT_EPOCH": 393,
    "BSTAR": -0.021331,
    "MEAN_MOTION_DOT": -0.01713665,
    "MEAN_MOTION_DDOT": 0
  },
  {
    "OBJECT_NAME": "STARLINK-31120",
    "OBJECT_ID": "2024-011P",
    "EPOCH": "2024-01-31T14:00:01.999872",
    "MEAN_MOTION": 15.62206902,
    "ECCENTRICITY": 8.87e-05,
    "INCLINATION": 53.1603,
    "RA_OF_ASC_NODE": 251.7746,
    "ARG_OF_PERICENTER": 79.9074,
    "MEAN_ANOMALY": 223.6256,
    "EPHEMERIS_TYPE": 0,
    "CLASSIFICATION_TYPE": "U",
    "NORAD_CAT_ID": 58778,
    "ELEMENT_SET_NO": 999,
    "REV_AT_EPOCH": 382,
    "BSTAR": -0.02134,
    "MEAN_MOTION_DOT": -0.01714087,
    "MEAN_MOTION_DDOT": 0
  },
  {
    "OBJECT_NAME": "STARLINK-31142",
    "OBJECT_ID": "2024-011Q",
    "EPOCH": "2024-01-31T14:00:01.999872",
    "MEAN_MOTION": 15.6220865,
    "ECCENTRICITY": 8.13e-05,
    "INCLINATION": 53.1603,
    "RA_OF_ASC_NODE": 251.7761,
    "ARG_OF_PERICENTER": 80.4057,
    "MEAN_ANOMALY": 222.2594,
    "EPHEMERIS_TYPE": 0,
    "CLASSIFICATION_TYPE": "U",
    "NORAD_CAT_ID": 58779,
    "ELEMENT_SET_NO": 999,
    "REV_AT_EPOCH": 393,
    "BSTAR": -0.021345,
    "MEAN_MOTION_DOT": -0.01714515,
    "MEAN_MOTION_DDOT": 0
  },
  {
    "OBJECT_NAME": "STARLINK-31103",
    "OBJECT_ID": "2024-011R",
    "EPOCH": "2024-01-31T14:00:01.999872",
    "MEAN_MOTION": 15.6220469,
    "ECCENTRICITY": 9.8e-05,
    "INCLINATION": 53.1603,
    "RA_OF_ASC_NODE": 251.7728,
    "ARG_OF_PERICENTER": 85.2765,
    "MEAN_ANOMALY": 219.1248,
    "EPHEMERIS_TYPE": 0,
    "CLASSIFICATION_TYPE": "U",
    "NORAD_CAT_ID": 58780,
    "ELEMENT_SET_NO": 999,
    "REV_AT_EPOCH": 382,
    "BSTAR": -0.021332,
    "MEAN_MOTION_DOT": -0.01713426,
    "MEAN_MOTION_DDOT": 0
  },
  {
    "OBJECT_NAME": "STARLINK-31099",
    "OBJECT_ID": "2024-011S",
    "EPOCH": "2024-01-31T14:00:01.999872",
    "MEAN_MOTION": 15.62203083,
    "ECCENTRICITY": 9.25e-05,
    "INCLINATION": 53.1605,
    "RA_OF_ASC_NODE": 251.7693,
    "ARG_OF_PERICENTER": 79.1355,
    "MEAN_ANOMALY": 227.0003,
    "EPHEMERIS_TYPE": 0,
    "CLASSIFICATION_TYPE": "U",
    "NORAD_CAT_ID": 58781,
    "ELEMENT_SET_NO": 999,
    "REV_AT_EPOCH": 382,
    "BSTAR": -0.021355,
    "MEAN_MOTION_DOT": -0.01714957,
    "MEAN_MOTION_DDOT": 0
  },
  {
    "OBJECT_NAME": "STARLINK-31060",
    "OBJECT_ID": "2024-011T",
    "EPOCH": "2024-01-31T14:00:01.999872",
    "MEAN_MOTION": 15.73214433,
    "ECCENTRICITY": 0.0001713,
    "INCLINATION": 53.1605,
    "RA_OF_ASC_NODE": 251.6389,
    "ARG_OF_PERICENTER": 120.7163,
    "MEAN_ANOMALY": 250.6595,
    "EPHEMERIS_TYPE": 0,
    "CLASSIFICATION_TYPE": "U",
    "NORAD_CAT_ID": 58782,
    "ELEMENT_SET_NO": 999,
    "REV_AT_EPOCH": 383,
    "BSTAR": -0.01347,
    "MEAN_MOTION_DOT": -0.01674778,
    "MEAN_MOTION_DDOT": 0
  },
  {
    "OBJECT_NAME": "STARLINK-31047",
    "OBJECT_ID": "2024-011U",
    "EPOCH": "2024-01-31T12:00:02.000160",
    "MEAN_MOTION": 15.65708034,
    "ECCENTRICITY": 8.96e-05,
    "INCLINATION": 53.1598,
    "RA_OF_ASC_NODE": 251.9485,
    "ARG_OF_PERICENTER": 77.2129,
    "MEAN_ANOMALY": 231.8371,
    "EPHEMERIS_TYPE": 0,
    "CLASSIFICATION_TYPE": "U",
    "NORAD_CAT_ID": 58783,
    "ELEMENT_SET_NO": 999,
    "REV_AT_EPOCH": 381,
    "BSTAR": -0.018526,
    "MEAN_MOTION_DOT": -0.0168072,
    "MEAN_MOTION_DDOT": 0
  },
  {
    "OBJECT_NAME": "STARLINK-31039",
    "OBJECT_ID": "2024-011V",
    "EPOCH": "2024-01-31T12:00:02.000160",
    "MEAN_MOTION": 15.62501867,
    "ECCENTRICITY": 0.000109,
    "INCLINATION": 53.16,
    "RA_OF_ASC_NODE": 252.1718,
    "ARG_OF_PERICENTER": 80.4171,
    "MEAN_ANOMALY": 118.4843,
    "EPHEMERIS_TYPE": 0,
    "CLASSIFICATION_TYPE": "U",
    "NORAD_CAT_ID": 58784,
    "ELEMENT_SET_NO": 999,
    "REV_AT_EPOCH": 381,
    "BSTAR": -0.020986,
    "MEAN_MOTION_DOT": -0.01675724,
    "MEAN_MOTION_DDOT": 0
  },
  {
    "OBJECT_NAME": "STARLINK-31034",
    "OBJECT_ID": "2024-011W",
    "EPOCH": "2024-01-31T12:00:02.000160",
    "MEAN_MOTION": 15.73703792,
    "ECCENTRICITY": 0.0001077,
    "INCLINATION": 53.1602,
    "RA_OF_ASC_NODE": 251.6118,
    "ARG_OF_PERICENTER": 80.7605,
    "MEAN_ANOMALY": 32.7745,
    "EPHEMERIS_TYPE": 0,
    "CLASSIFICATION_TYPE": "U",
    "NORAD_CAT_ID": 58785,
    "ELEMENT_SET_NO": 999,
    "REV_AT_EPOCH": 381,
    "BSTAR": -0.012154,
    "MEAN_MOTION_DOT": -0.01557227,
    "MEAN_MOTION_DDOT": 0
  },
  {
    "OBJECT_NAME": "STARLINK-31024",
    "OBJECT_ID": "2024-011X",
    "EPOCH": "2024-01-31T12:00:02.000160",
    "MEAN_MOTION": 15.6249873,
    "ECCENTRICITY": 9.8e-05,
    "INCLINATION": 53.1598,
    "RA_OF_ASC_NODE": 252.1677,
    "ARG_OF_PERICENTER": 88.3742,
    "MEAN_ANOMALY": 112.2644,
    "EPHEMERIS_TYPE": 0,
    "CLASSIFICATION_TYPE": "U",
    "NORAD_CAT_ID": 58786,
    "ELEMENT_SET_NO": 999,
    "REV_AT_EPOCH": 381,
    "BSTAR": -0.020982,
    "MEAN_MOTION_DOT": -0.01675196,
    "MEAN_MOTION_DDOT": 0
  },
  {
    "OBJECT_NAME": "STARLINK-31189",
    "OBJECT_ID": "2024-012A",
    "EPOCH": "2024-01-31T14:00:01.999872",
    "MEAN_MOTION": 15.72771943,
    "ECCENTRICITY": 0.0001406,
    "INCLINATION": 43.0008,
    "RA_OF_ASC_NODE": 177.846,
    "ARG_OF_PERICENTER": 282.9734,
    "MEAN_ANOMALY": 153.5616,
    "EPHEMERIS_TYPE": 0,
    "CLASSIFICATION_TYPE": "U",
    "NORAD_CAT_ID": 58787,
    "ELEMENT_SET_NO": 999,
    "REV_AT_EPOCH": 368,
    "BSTAR": -0.014241,
    "MEAN_MOTION_DOT": -0.0174458,
    "MEAN_MOTION_DDOT": 0
  }
]